{"fetched_at":"2026-03-30T09:12:31Z","count":15922,"tles":[{"name":"STARLINK-32766","line1":"1 62574U 25006W   26087.72237281  .00044182  00000+0  16036-2 0  9998","line2":"2 62574  43.0027 185.0681 0001299 267.5448  92.5255 15.27617977 67775","category":"Starlink"}]}